[{"OBJECT_NAME":"STARLINK-4661","OBJECT_ID":"2022-107AJ","EPOCH":"2026-03-09T19:55:28.713216","MEAN_MOTION":15.08839677,"ECCENTRICITY":0.0001181,"INCLINATION":53.2159,"RA_OF_ASC_NODE":253.5716,"ARG_OF_PERICENTER":87.4091,"MEAN_ANOMALY":272.7036,"EPHEMERIS_TYPE":0,"CLASSIFICATION_TYPE":"U","NORAD_CAT_ID":53732,"ELEMENT_SET_NO":999,"REV_AT_EPOCH":19457,"BSTAR":4.4164919e-5,"MEAN_MOTION_DOT":4.15e-6,"MEAN_MOTION_DDOT":0},{"OBJECT_NAME":"CZ-2C R\/B","OBJECT_ID":"2026-009B","EPOCH":"2026-03-09T17:37:38.663328","MEAN_MOTION":15.03346126,"ECCENTRICITY":0.00989033,"INCLINATION":97.1689,"RA_OF_ASC_NODE":139.2821,"ARG_OF_PERICENTER":40.6367,"MEAN_ANOMALY":320.2186,"EPHEMERIS_TYPE":0,"CLASSIFICATION_TYPE":"U","NORAD_CAT_ID":67475,"ELEMENT_SET_NO":999,"REV_AT_EPOCH":808,"BSTAR":0.00028478769,"MEAN_MOTION_DOT":4.245e-5,"MEAN_MOTION_DDOT":0}]
